{
  "type": "FeatureCollection",
  "features": [
    {
      "type": "Feature",
      "properties": {
        "norad_id": 66718,
        "name": "FLOCK 4H-15",
        "group": "last-30-days",
        "lat": 78.62446569908688,
        "lon": 25.049641608541393,
        "alt_km": 509.22680255541763,
        "timestamp": "2025-12-19T22:41:51.096225+00:00",
        "meta_object_name": "FLOCK 4H-15",
        "meta_object_id": "2025-276BE",
        "meta_epoch": "2025-12-19T18:00:00.998784",
        "meta_mean_motion": 15.17095173,
        "meta_eccentricity": 0.0002952,
        "meta_inclination": 97.4436,
        "meta_ra_of_asc_node": 65.387,
        "meta_arg_of_pericenter": 283.5013,
        "meta_mean_anomaly": 169.638,
        "meta_ephemeris_type": 0,
        "meta_classification_type": "U",
        "meta_norad_cat_id": 66718,
        "meta_element_set_no": 999,
        "meta_rev_at_epoch": 220,
        "meta_bstar": -0.00098628,
        "meta_mean_motion_dot": -0.00019541,
        "meta_mean_motion_ddot": 0,
        "tle_line1": "1 66718U 25276BE  25353.75001156 -.00019541  00000+0 -98628-3 0  9990",
        "tle_line2": "2 66718  97.4436  65.3870 0002952 283.5013 169.6380 15.17095173  2208"
      },
      "geometry": {
        "type": "Point",
        "coordinates": [
          25.049641608541393,
          78.62446569908688
        ]
      }
    },
    {
      "type": "Feature",
      "properties": {
        "norad_id": 66719,
        "name": "FLOCK 4H-16",
        "group": "last-30-days",
        "lat": 82.52682954874155,
        "lon": -19.935872287504147,
        "alt_km": 508.78928204634576,
        "timestamp": "2025-12-19T22:41:51.096234+00:00",
        "meta_object_name": "FLOCK 4H-16",
        "meta_object_id": "2025-276BF",
        "meta_epoch": "2025-12-19T18:00:00.998784",
        "meta_mean_motion": 15.17208951,
        "meta_eccentricity": 0.0002854,
        "meta_inclination": 97.4455,
        "meta_ra_of_asc_node": 65.3947,
        "meta_arg_of_pericenter": 263.5033,
        "meta_mean_anomaly": 197.597,
        "meta_ephemeris_type": 0,
        "meta_classification_type": "U",
        "meta_norad_cat_id": 66719,
        "meta_element_set_no": 999,
        "meta_rev_at_epoch": 261,
        "meta_bstar": -0.0010141,
        "meta_mean_motion_dot": -0.00020153,
        "meta_mean_motion_ddot": 0,
        "tle_line1": "1 66719U 25276BF  25353.75001156 -.00020153  00000+0 -10141-2 0  9995",
        "tle_line2": "2 66719  97.4455  65.3947 0002854 263.5033 197.5970 15.17208951  2616"
      },
      "geometry": {
        "type": "Point",
        "coordinates": [
          -19.935872287504147,
          82.52682954874155
        ]
      }
    },
    {
      "type": "Feature",
      "properties": {
        "norad_id": 66720,
        "name": "FLOCK 4H-17",
        "group": "last-30-days",
        "lat": 28.754471253214536,
        "lon": -110.26873449682358,
        "alt_km": 509.33167095816407,
        "timestamp": "2025-12-19T22:41:51.096248+00:00",
        "meta_object_name": "FLOCK 4H-17",
        "meta_object_id": "2025-276BG",
        "meta_epoch": "2025-12-19T18:00:00.998784",
        "meta_mean_motion": 15.18047189,
        "meta_eccentricity": 0.0002539,
        "meta_inclination": 97.4456,
        "meta_ra_of_asc_node": 65.4236,
        "meta_arg_of_pericenter": 198.7949,
        "meta_mean_anomaly": 323.1894,
        "meta_ephemeris_type": 0,
        "meta_classification_type": "U",
        "meta_norad_cat_id": 66720,
        "meta_element_set_no": 999,
        "meta_rev_at_epoch": 130,
        "meta_bstar": -0.0011346,
        "meta_mean_motion_dot": -0.00023076,
        "meta_mean_motion_ddot": 0,
        "tle_line1": "1 66720U 25276BG  25353.75001156 -.00023076  00000+0 -11346-2 0  9992",
        "tle_line2": "2 66720  97.4456  65.4236 0002539 198.7949 323.1894 15.18047189  1308"
      },
      "geometry": {
        "type": "Point",
        "coordinates": [
          -110.26873449682358,
          28.754471253214536
        ]
      }
    },
    {
      "type": "Feature",
      "properties": {
        "norad_id": 66721,
        "name": "FLOCK 4H-18",
        "group": "last-30-days",
        "lat": 80.42991834985337,
        "lon": 14.757052716283619,
        "alt_km": 508.4847004029316,
        "timestamp": "2025-12-19T22:41:51.096259+00:00",
        "meta_object_name": "FLOCK 4H-18",
        "meta_object_id": "2025-276BH",
        "meta_epoch": "2025-12-19T18:00:00.998784",
        "meta_mean_motion": 15.17129046,
        "meta_eccentricity": 0.0002356,
        "meta_inclination": 97.4398,
        "meta_ra_of_asc_node": 65.375,
        "meta_arg_of_pericenter": 299.4974,
        "meta_mean_anomaly": 156.2019,
        "meta_ephemeris_type": 0,
        "meta_classification_type": "U",
        "meta_norad_cat_id": 66721,
        "meta_element_set_no": 999,
        "meta_rev_at_epoch": 261,
        "meta_bstar": -0.0010156,
        "meta_mean_motion_dot": -0.00020136,
        "meta_mean_motion_ddot": 0,
        "tle_line1": "1 66721U 25276BH  25353.75001156 -.00020136  00000+0 -10156-2 0  9995",
        "tle_line2": "2 66721  97.4398  65.3750 0002356 299.4974 156.2019 15.17129046  2619"
      },
      "geometry": {
        "type": "Point",
        "coordinates": [
          14.757052716283619,
          80.42991834985337
        ]
      }
    },
    {
      "type": "Feature",
      "properties": {
        "norad_id": 66722,
        "name": "FLOCK 4H-19",
        "group": "last-30-days",
        "lat": 15.141207434097959,
        "lon": -112.370768373836,
        "alt_km": 510.55418549156457,
        "timestamp": "2025-12-19T22:41:51.096271+00:00",
        "meta_object_name": "FLOCK 4H-19",
        "meta_object_id": "2025-276BJ",
        "meta_epoch": "2025-12-19T18:00:00.998784",
        "meta_mean_motion": 15.18222244,
        "meta_eccentricity": 0.000233,
        "meta_inclination": 97.4401,
        "meta_ra_of_asc_node": 65.4103,
        "meta_arg_of_pericenter": 162.7696,
        "meta_mean_anomaly": 12.8053,
        "meta_ephemeris_type": 0,
        "meta_classification_type": "U",
        "meta_norad_cat_id": 66722,
        "meta_element_set_no": 999,
        "meta_rev_at_epoch": 433,
        "meta_bstar": -0.0011732,
        "meta_mean_motion_dot": -0.00023976,
        "meta_mean_motion_ddot": 0,
        "tle_line1": "1 66722U 25276BJ  25353.75001156 -.00023976  00000+0 -11732-2 0  9992",
        "tle_line2": "2 66722  97.4401  65.4103 0002330 162.7696  12.8053 15.18222244  4334"
      },
      "geometry": {
        "type": "Point",
        "coordinates": [
          -112.370768373836,
          15.141207434097959
        ]
      }
    },
    {
      "type": "Feature",
      "properties": {
        "norad_id": 66723,
        "name": "FLOCK 4H-20",
        "group": "last-30-days",
        "lat": 12.485524239366159,
        "lon": -112.72456564254728,
        "alt_km": 510.5320377482967,
        "timestamp": "2025-12-19T22:41:51.096282+00:00",
        "meta_object_name": "FLOCK 4H-20",
        "meta_object_id": "2025-276BK",
        "meta_epoch": "2025-12-19T18:00:00.998784",
        "meta_mean_motion": 15.18278742,
        "meta_eccentricity": 0.0002751,
        "meta_inclination": 97.4436,
        "meta_ra_of_asc_node": 65.4239,
        "meta_arg_of_pericenter": 179.308,
        "meta_mean_anomaly": 358.9119,
        "meta_ephemeris_type": 0,
        "meta_classification_type": "U",
        "meta_norad_cat_id": 66723,
        "meta_element_set_no": 999,
        "meta_rev_at_epoch": 130,
        "meta_bstar": -0.0011105,
        "meta_mean_motion_dot": -0.00022739,
        "meta_mean_motion_ddot": 0,
        "tle_line1": "1 66723U 25276BK  25353.75001156 -.00022739  00000+0 -11105-2 0  9993",
        "tle_line2": "2 66723  97.4436  65.4239 0002751 179.3080 358.9119 15.18278742  1306"
      },
      "geometry": {
        "type": "Point",
        "coordinates": [
          -112.72456564254728,
          12.485524239366159
        ]
      }
    },
    {
      "type": "Feature",
      "properties": {
        "norad_id": 66724,
        "name": "FLOCK 4H-21",
        "group": "last-30-days",
        "lat": 10.167361168741005,
        "lon": -113.05203309148122,
        "alt_km": 510.90092455353533,
        "timestamp": "2025-12-19T22:41:51.096294+00:00",
        "meta_object_name": "FLOCK 4H-21",
        "meta_object_id": "2025-276BL",
        "meta_epoch": "2025-12-19T18:00:00.998784",
        "meta_mean_motion": 15.18339684,
        "meta_eccentricity": 0.0002409,
        "meta_inclination": 97.4403,
        "meta_ra_of_asc_node": 65.4125,
        "meta_arg_of_pericenter": 176.3307,
        "meta_mean_anomaly": 4.1802,
        "meta_ephemeris_type": 0,
        "meta_classification_type": "U",
        "meta_norad_cat_id": 66724,
        "meta_element_set_no": 999,
        "meta_rev_at_epoch": 261,
        "meta_bstar": -0.0010515,
        "meta_mean_motion_dot": -0.00021576,
        "meta_mean_motion_ddot": 0,
        "tle_line1": "1 66724U 25276BL  25353.75001156 -.00021576  00000+0 -10515-2 0  9996",
        "tle_line2": "2 66724  97.4403  65.4125 0002409 176.3307   4.1802 15.18339684  2611"
      },
      "geometry": {
        "type": "Point",
        "coordinates": [
          -113.05203309148122,
          10.167361168741005
        ]
      }
    }
  ]
}